{"type": "FeatureCollection", "features": [ {"type": "Feature", "properties": {"norad_id": 66459, "name": "STARLINK-35449", "group": "last-30-days", "lat": 0.9547283077731445, "lon": -81.84046711056747, "alt_km": 427.0598433427858, "timestamp": "2025-12-07T22:37:41.856256+00:00", "meta": {"OBJECT_NAME": "STARLINK-35449", "OBJECT_ID": "2025-262D", "EPOCH": "2025-12-07T06:00:04.999968", "MEAN_MOTION": 15.49401073, "ECCENTRICITY": 0.00013158, "INCLINATION": 43.0006, "RA_OF_ASC_NODE": 103.2204, "ARG_OF_PERICENTER": 258.2916, "MEAN_ANOMALY": 15.2391, "EPHEMERIS_TYPE": 0, "CLASSIFICATION_TYPE": "U", "NORAD_CAT_ID": 66459, "ELEMENT_SET_NO": 999, "REV_AT_EPOCH": 475, "BSTAR": -0.041355578, "MEAN_MOTION_DOT": -0.02069223, "MEAN_MOTION_DDOT": 0}, "tle": {"line1": "1 66459U 25262D   25341.25005787 -.02069223  00000+0 -41356-1 0  9991", "line2": "2 66459  43.0006 103.2204 0001315 258.2916  15.2391 15.49401073  4751"}}, "geometry": {"type": "Point", "coordinates": [-81.84046711056747, 0.9547283077731445]}}, {"type": "Feature", "properties": {"norad_id": 66460, "name": "STARLINK-35424", "group": "last-30-days", "lat": -3.0131963188538538, "lon": -77.59147719272627, "alt_km": 423.5675960056433, "timestamp": "2025-12-07T22:37:41.856269+00:00", "meta": {"OBJECT_NAME": "STARLINK-35424", "OBJECT_ID": "2025-262E", "EPOCH": "2025-12-07T06:00:04.999968", "MEAN_MOTION": 15.50717358, "ECCENTRICITY": 0.00014933, "INCLINATION": 43.0007, "RA_OF_ASC_NODE": 103.2147, "ARG_OF_PERICENTER": 263.8719, "MEAN_ANOMALY": 12.1247, "EPHEMERIS_TYPE": 0, "CLASSIFICATION_TYPE": "U", "NORAD_CAT_ID": 66460, "ELEMENT_SET_NO": 999, "REV_AT_EPOCH": 475, "BSTAR": -0.038781991, "MEAN_MOTION_DOT": -0.02038036, "MEAN_MOTION_DDOT": 0}, "tle": {"line1": "1 66460U 25262E   25341.25005787 -.02038036  00000+0 -38782-1 0  9990", "line2": "2 66460  43.0007 103.2147 0001493 263.8719  12.1247 15.50717358  4754"}}, "geometry": {"type": "Point", "coordinates": [-77.59147719272627, -3.0131963188538538]}}, {"type": "Feature", "properties": {"norad_id": 66461, "name": "STARLINK-35132", "group": "last-30-days", "lat": -6.361773574496837, "lon": -73.97055133950799, "alt_km": 416.6677070019541, "timestamp": "2025-12-07T22:37:41.856280+00:00", "meta": {"OBJECT_NAME": "STARLINK-35132", "OBJECT_ID": "2025-262F", "EPOCH": "2025-12-07T06:00:04.999968", "MEAN_MOTION": 15.50732645, "ECCENTRICITY": 0.00017996, "INCLINATION": 43.0007, "RA_OF_ASC_NODE": 103.21, "ARG_OF_PERICENTER": 255.107, "MEAN_ANOMALY": 22.7939, "EPHEMERIS_TYPE": 0, "CLASSIFICATION_TYPE": "U", "NORAD_CAT_ID": 66461, "ELEMENT_SET_NO": 999, "REV_AT_EPOCH": 475, "BSTAR": -0.0081990942, "MEAN_MOTION_DOT": -0.00456847, "MEAN_MOTION_DDOT": 0}, "tle": {"line1": "1 66461U 25262F   25341.25005787 -.00456847  00000+0 -81991-2 0  9994", "line2": "2 66461  43.0007 103.2100 0001799 255.1070  22.7939 15.50732645  4758"}}, "geometry": {"type": "Point", "coordinates": [-73.97055133950799, -6.361773574496837]}}, {"type": "Feature", "properties": {"norad_id": 66462, "name": "STARLINK-35499", "group": "last-30-days", "lat": -7.9944118801494835, "lon": -72.18125886135613, "alt_km": 415.24314708398924, "timestamp": "2025-12-07T22:37:41.856292+00:00", "meta": {"OBJECT_NAME": "STARLINK-35499", "OBJECT_ID": "2025-262G", "EPOCH": "2025-12-07T06:00:04.999968", "MEAN_MOTION": 15.50537296, "ECCENTRICITY": 0.00015518, "INCLINATION": 43.0009, "RA_OF_ASC_NODE": 103.204, "ARG_OF_PERICENTER": 255.556, "MEAN_ANOMALY": 24.297, "EPHEMERIS_TYPE": 0, "CLASSIFICATION_TYPE": "U", "NORAD_CAT_ID": 66462, "ELEMENT_SET_NO": 999, "REV_AT_EPOCH": 475, "BSTAR": 0.0011730991, "MEAN_MOTION_DOT": 0.00068985, "MEAN_MOTION_DDOT": 0}, "tle": {"line1": "1 66462U 25262G   25341.25005787  .00068985  00000+0  11731-2 0  9990", "line2": "2 66462  43.0009 103.2040 0001551 255.5560  24.2970 15.50537296  4755"}}, "geometry": {"type": "Point", "coordinates": [-72.18125886135613, -7.9944118801494835]}}, {"type": "Feature", "properties": {"norad_id": 66463, "name": "STARLINK-35463", "group": "last-30-days", "lat": -10.510939669216567, "lon": -69.37364570022399, "alt_km": 415.8674950953573, "timestamp": "2025-12-07T22:37:41.856303+00:00", "meta": {"OBJECT_NAME": "STARLINK-35463", "OBJECT_ID": "2025-262H", "EPOCH": "2025-12-07T06:00:04.999968", "MEAN_MOTION": 15.5058449, "ECCENTRICITY": 0.00015269, "INCLINATION": 43.0007, "RA_OF_ASC_NODE": 103.195, "ARG_OF_PERICENTER": 260.7919, "MEAN_ANOMALY": 22.8873, "EPHEMERIS_TYPE": 0, "CLASSIFICATION_TYPE": "U", "NORAD_CAT_ID": 66463, "ELEMENT_SET_NO": 999, "REV_AT_EPOCH": 475, "BSTAR": -0.00073476651, "MEAN_MOTION_DOT": -0.00043218, "MEAN_MOTION_DDOT": 0}, "tle": {"line1": "1 66463U 25262H   25341.25005787 -.00043218  00000+0 -73477-3 0  9991", "line2": "2 66463  43.0007 103.1950 0001526 260.7919  22.8873 15.50584490  4755"}}, "geometry": {"type": "Point", "coordinates": [-69.37364570022399, -10.510939669216567]}}, {"type": "Feature", "properties": {"norad_id": 66464, "name": "STARLINK-35435", "group": "last-30-days", "lat": -9.211839613480416, "lon": -70.83049585870177, "alt_km": 415.81262294513635, "timestamp": "2025-12-07T22:37:41.856313+00:00", "meta": {"OBJECT_NAME": "STARLINK-35435", "OBJECT_ID": "2025-262J", "EPOCH": "2025-12-07T06:00:04.999968", "MEAN_MOTION": 15.50610251, "ECCENTRICITY": 0.00014155, "INCLINATION": 43.0008, "RA_OF_ASC_NODE": 103.2001, "ARG_OF_PERICENTER": 254.3199, "MEAN_ANOMALY": 27.4427, "EPHEMERIS_TYPE": 0, "CLASSIFICATION_TYPE": "U", "NORAD_CAT_ID": 66464, "ELEMENT_SET_NO": 999, "REV_AT_EPOCH": 475, "BSTAR": -0.0016175345, "MEAN_MOTION_DOT": -0.00094206, "MEAN_MOTION_DDOT": 0}, "tle": {"line1": "1 66464U 25262J   25341.25005787 -.00094206  00000+0 -16175-2 0  9996", "line2": "2 66464  43.0008 103.2001 0001415 254.3199  27.4427 15.50610251  4752"}}, "geometry": {"type": "Point", "coordinates": [-70.83049585870177, -9.211839613480416]}}, {"type": "Feature", "properties": {"norad_id": 66465, "name": "STARLINK-35448", "group": "last-30-days", "lat": -13.059155871803913, "lon": -66.45417016126257, "alt_km": 415.9993557494163, "timestamp": "2025-12-07T22:37:41.856324+00:00", "meta": {"OBJECT_NAME": "STARLINK-35448", "OBJECT_ID": "2025-262K", "EPOCH": "2025-12-07T06:00:04.999968", "MEAN_MOTION": 15.50578208, "ECCENTRICITY": 0.00015806, "INCLINATION": 43.0007, "RA_OF_ASC_NODE": 103.1856, "ARG_OF_PERICENTER": 258.3636, "MEAN_ANOMALY": 29.1538, "EPHEMERIS_TYPE": 0, "CLASSIFICATION_TYPE": "U", "NORAD_CAT_ID": 66465, "ELEMENT_SET_NO": 999, "REV_AT_EPOCH": 475, "BSTAR": -0.00059376763, "MEAN_MOTION_DOT": -0.00035019, "MEAN_MOTION_DDOT": 0}, "tle": {"line1": "1 66465U 25262K   25341.25005787 -.00035019  00000+0 -59377-3 0  9996", "line2": "2 66465  43.0007 103.1856 0001580 258.3636  29.1538 15.50578208  4759"}}, "geometry": {"type": "Point", "coordinates": [-66.45417016126257, -13.059155871803913]}}, {"type": "Feature", "properties": {"norad_id": 66466, "name": "STARLINK-35388", "group": "last-30-days", "lat": -14.318196780607911, "lon": -64.97713706255456, "alt_km": 416.11648118178437, "timestamp": "2025-12-07T22:37:41.856334+00:00", "meta": {"OBJECT_NAME": "STARLINK-35388", "OBJECT_ID": "2025-262L", "EPOCH": "2025-12-07T06:00:04.999968", "MEAN_MOTION": 15.50580464, "ECCENTRICITY": 0.00015113, "INCLINATION": 43.0007, "RA_OF_ASC_NODE": 103.1797, "ARG_OF_PERICENTER": 257.1421, "MEAN_ANOMALY": 32.2939, "EPHEMERIS_TYPE": 0, "CLASSIFICATION_TYPE": "U", "NORAD_CAT_ID": 66466, "ELEMENT_SET_NO": 999, "REV_AT_EPOCH": 475, "BSTAR": -0.000703974, "MEAN_MOTION_DOT": -0.00041425, "MEAN_MOTION_DDOT": 0}, "tle": {"line1": "1 66466U 25262L   25341.25005787 -.00041425  00000+0 -70397-3 0  9990", "line2": "2 66466  43.0007 103.1797 0001511 257.1421  32.2939 15.50580464  4754"}}, "geometry": {"type": "Point", "coordinates": [-64.97713706255456, -14.318196780607911]}}, {"type": "Feature", "properties": {"norad_id": 66467, "name": "STARLINK-35682", "group": "last-30-days", "lat": -11.783865914580144, "lon": -67.9262870483153, "alt_km": 415.93600756178694, "timestamp": "2025-12-07T22:37:41.856344+00:00", "meta": {"OBJECT_NAME": "STARLINK-35682", "OBJECT_ID": "2025-262M", "EPOCH": "2025-12-07T06:00:04.999968", "MEAN_MOTION": 15.50587473, "ECCENTRICITY": 0.0001569, "INCLINATION": 43.0008, "RA_OF_ASC_NODE": 103.1904, "ARG_OF_PERICENTER": 257.959, "MEAN_ANOMALY": 27.6382, "EPHEMERIS_TYPE": 0, "CLASSIFICATION_TYPE": "U", "NORAD_CAT_ID": 66467, "ELEMENT_SET_NO": 999, "REV_AT_EPOCH": 475, "BSTAR": -0.00087778584, "MEAN_MOTION_DOT": -0.00051515, "MEAN_MOTION_DDOT": 0}, "tle": {"line1": "1 66467U 25262M   25341.25005787 -.00051515  00000+0 -87779-3 0  9994", "line2": "2 66467  43.0008 103.1904 0001569 257.9590  27.6382 15.50587473  4751"}}, "geometry": {"type": "Point", "coordinates": [-67.9262870483153, -11.783865914580144]}}, {"type": "Feature", "properties": {"norad_id": 66468, "name": "STARLINK-35331", "group": "last-30-days", "lat": -15.564483571839348, "lon": -63.48572305852768, "alt_km": 416.18146097267163, "timestamp": "2025-12-07T22:37:41.856358+00:00", "meta": {"OBJECT_NAME": "STARLINK-35331", "OBJECT_ID": "2025-262N", "EPOCH": "2025-12-07T06:00:04.999968", "MEAN_MOTION": 15.50587213, "ECCENTRICITY": 0.00015657, "INCLINATION": 43.0007, "RA_OF_ASC_NODE": 103.1757, "ARG_OF_PERICENTER": 254.5846, "MEAN_ANOMALY": 36.7657, "EPHEMERIS_TYPE": 0, "CLASSIFICATION_TYPE": "U", "NORAD_CAT_ID": 66468, "ELEMENT_SET_NO": 999, "REV_AT_EPOCH": 475, "BSTAR": -0.00092434369, "MEAN_MOTION_DOT": -0.0005421, "MEAN_MOTION_DDOT": 0}, "tle": {"line1": "1 66468U 25262N   25341.25005787 -.00054210  00000+0 -92434-3 0  9994", "line2": "2 66468  43.0007 103.1757 0001565 254.5846  36.7657 15.50587213  4758"}}, "geometry": {"type": "Point", "coordinates": [-63.48572305852768, -15.564483571839348]}}]}